{
  "type": "FeatureCollection",
  "features": [
    {
      "type": "Feature",
      "properties": {
        "norad_id": 64202,
        "name": "GPS BIII-8  (PRN 21)",
        "group": "gnss",
        "lat": 45.65612679165906,
        "lon": 83.67711101899326,
        "alt_km": 20182.64637517336,
        "timestamp": "2025-12-25T03:55:56.600688+00:00",
        "meta_object_name": "GPS BIII-8  (PRN 21)",
        "meta_object_id": "2025-116A",
        "meta_epoch": "2025-12-24T05:06:23.734944",
        "meta_mean_motion": 2.0055752,
        "meta_eccentricity": 0.00059658,
        "meta_inclination": 55.1137,
        "meta_ra_of_asc_node": 38.1782,
        "meta_arg_of_pericenter": 310.8419,
        "meta_mean_anomaly": 143.1183,
        "meta_ephemeris_type": 0,
        "meta_classification_type": "U",
        "meta_norad_cat_id": 64202,
        "meta_element_set_no": 999,
        "meta_rev_at_epoch": 436,
        "meta_bstar": 0,
        "meta_mean_motion_dot": -5e-07,
        "meta_mean_motion_ddot": 0,
        "tle_line1": "1 64202U 25116A   25358.21277471 -.00000050  00000+0  00000+0 0  9997",
        "tle_line2": "2 64202  55.1137  38.1782 0005965 310.8419 143.1183  2.00557520  4368"
      },
      "geometry": {
        "type": "Point",
        "coordinates": [
          83.67711101899326,
          45.65612679165906
        ]
      }
    },
    {
      "type": "Feature",
      "properties": {
        "norad_id": 65590,
        "name": "COSMOS 2596 (708K)",
        "group": "gnss",
        "lat": -25.863811130816675,
        "lon": 154.2528310197984,
        "alt_km": 19139.079434765114,
        "timestamp": "2025-12-25T03:55:56.600700+00:00",
        "meta_object_name": "COSMOS 2596 (708K)",
        "meta_object_id": "2025-206B",
        "meta_epoch": "2025-12-24T04:32:38.772960",
        "meta_mean_motion": 2.13100301,
        "meta_eccentricity": 0.00140894,
        "meta_inclination": 64.7381,
        "meta_ra_of_asc_node": 321.0775,
        "meta_arg_of_pericenter": 307.5412,
        "meta_mean_anomaly": 233.8,
        "meta_ephemeris_type": 0,
        "meta_classification_type": "U",
        "meta_norad_cat_id": 65590,
        "meta_element_set_no": 999,
        "meta_rev_at_epoch": 218,
        "meta_bstar": 0,
        "meta_mean_motion_dot": -3.5e-07,
        "meta_mean_motion_ddot": 0,
        "tle_line1": "1 65590U 25206B   25358.18933765 -.00000035  00000+0  00000+0 0  9992",
        "tle_line2": "2 65590  64.7381 321.0775 0014089 307.5412 233.8000  2.13100301  2183"
      },
      "geometry": {
        "type": "Point",
        "coordinates": [
          154.2528310197984,
          -25.863811130816675
        ]
      }
    },
    {
      "type": "Feature",
      "properties": {
        "norad_id": 67160,
        "name": "GALILEO A",
        "group": "gnss",
        "lat": 37.34212146090735,
        "lon": 140.3419791965704,
        "alt_km": 22963.752017543837,
        "timestamp": "2025-12-25T03:55:56.600713+00:00",
        "meta_object_name": "GALILEO A",
        "meta_object_id": "2025-302A",
        "meta_epoch": "2025-12-18T03:30:19.486368",
        "meta_mean_motion": 1.72906186,
        "meta_eccentricity": 0.00084238,
        "meta_inclination": 54.2406,
        "meta_ra_of_asc_node": 107.2544,
        "meta_arg_of_pericenter": 237.6458,
        "meta_mean_anomaly": 122.2317,
        "meta_ephemeris_type": 0,
        "meta_classification_type": "U",
        "meta_norad_cat_id": 67160,
        "meta_element_set_no": 999,
        "meta_rev_at_epoch": 2,
        "meta_bstar": 0,
        "meta_mean_motion_dot": -7e-08,
        "meta_mean_motion_ddot": 0,
        "tle_line1": "1 67160U 25302A   25352.14605887 -.00000007  00000+0  00000+0 0  9994",
        "tle_line2": "2 67160  54.2406 107.2544 0008423 237.6458 122.2317  1.72906186    28"
      },
      "geometry": {
        "type": "Point",
        "coordinates": [
          140.3419791965704,
          37.34212146090735
        ]
      }
    },
    {
      "type": "Feature",
      "properties": {
        "norad_id": 67161,
        "name": "GALILEO B",
        "group": "gnss",
        "lat": 38.594870603977284,
        "lon": 142.08706349347972,
        "alt_km": 22943.969354234592,
        "timestamp": "2025-12-25T03:55:56.600725+00:00",
        "meta_object_name": "GALILEO B",
        "meta_object_id": "2025-302B",
        "meta_epoch": "2025-12-19T07:14:53.290752",
        "meta_mean_motion": 1.72972192,
        "meta_eccentricity": 0.00045866,
        "meta_inclination": 54.2272,
        "meta_ra_of_asc_node": 107.1916,
        "meta_arg_of_pericenter": 255.0301,
        "meta_mean_anomaly": 104.8802,
        "meta_ephemeris_type": 0,
        "meta_classification_type": "U",
        "meta_norad_cat_id": 67161,
        "meta_element_set_no": 999,
        "meta_rev_at_epoch": 5,
        "meta_bstar": 0,
        "meta_mean_motion_dot": -5e-08,
        "meta_mean_motion_ddot": 0,
        "tle_line1": "1 67161U 25302B   25353.30200568 -.00000005  00000+0  00000+0 0  9999",
        "tle_line2": "2 67161  54.2272 107.1916 0004586 255.0301 104.8802  1.72972192    57"
      },
      "geometry": {
        "type": "Point",
        "coordinates": [
          142.08706349347972,
          38.594870603977284
        ]
      }
    }
  ]
}